{
  "norad_id": 53391,
  "name": "STARLINK-4521",
  "history": [
    {
      "epoch": "2026-04-13T00:35:38.330016Z",
      "apogee_km": 540.656059492545,
      "perigee_km": 538.8390079409182,
      "latitude_deg": -1.7178828738813926e-05,
      "longitude_deg": 119.85331565589838,
      "height_km": 540.7119331463089,
      "semi_major_axis_km": 6917.884533716731,
      "eccentricity": 0.00013133,
      "inclination_deg": 53.2175,
      "raan_deg": 329.9845,
      "arg_perigee_deg": 94.3311,
      "mean_anomaly_deg": 265.7831,
      "mean_motion_rev_day": 15.08838644
    },
    {
      "epoch": "2026-04-14T19:31:02.839584Z",
      "apogee_km": 540.6213508549454,
      "perigee_km": 538.8697429940648,
      "latitude_deg": 2.50958733806352e-05,
      "longitude_deg": -173.79097878532653,
      "height_km": 540.7167255282925,
      "semi_major_axis_km": 6917.882546924505,
      "eccentricity": 0.0001266,
      "inclination_deg": 53.2176,
      "raan_deg": 321.9551,
      "arg_perigee_deg": 94.9336,
      "mean_anomaly_deg": 265.1801,
      "mean_motion_rev_day": 15.08839294
    },
    {
      "epoch": "2026-04-15T20:57:14.450688Z",
      "apogee_km": 540.5848483792925,
      "perigee_km": 538.9757408165697,
      "latitude_deg": 6.793422008422736e-06,
      "longitude_deg": 158.85968769264946,
      "height_km": 540.7462883159409,
      "semi_major_axis_km": 6917.917294597931,
      "eccentricity": 0.0001163,
      "inclination_deg": 53.2179,
      "raan_deg": 317.1988,
      "arg_perigee_deg": 94.9888,
      "mean_anomaly_deg": 265.1237,
      "mean_motion_rev_day": 15.08827926
    },
    {
      "epoch": "2026-04-16T20:48:02.200032Z",
      "apogee_km": 540.8246110941564,
      "perigee_km": 538.823936693745,
      "latitude_deg": -4.168574208832114e-05,
      "longitude_deg": 155.72005299901068,
      "height_km": 540.8874878083197,
      "semi_major_axis_km": 6917.96127389395,
      "eccentricity": 0.0001446,
      "inclination_deg": 53.2172,
      "raan_deg": 312.7375,
      "arg_perigee_deg": 99.6466,
      "mean_anomaly_deg": 260.4689,
      "mean_motion_rev_day": 15.08813538
    },
    {
      "epoch": "2026-04-17T22:14:12.309504Z",
      "apogee_km": 540.6126735705211,
      "perigee_km": 538.8941312367551,
      "latitude_deg": -3.185457650777284e-05,
      "longitude_deg": 128.37531362011538,
      "height_km": 540.7556520275544,
      "semi_major_axis_km": 6917.890402403637,
      "eccentricity": 0.00012421,
      "inclination_deg": 53.2173,
      "raan_deg": 307.9795,
      "arg_perigee_deg": 97.1114,
      "mean_anomaly_deg": 263.0019,
      "mean_motion_rev_day": 15.08836724
    },
    {
      "epoch": "2026-04-17T23:49:35.648544Z",
      "apogee_km": 540.681049606017,
      "perigee_km": 538.8627464312613,
      "latitude_deg": -1.712137894371127e-05,
      "longitude_deg": 104.16548721150747,
      "height_km": 540.9125575182203,
      "semi_major_axis_km": 6917.908898018639,
      "eccentricity": 0.00013142,
      "inclination_deg": 53.2168,
      "raan_deg": 307.6822,
      "arg_perigee_deg": 105.6264,
      "mean_anomaly_deg": 254.4873,
      "mean_motion_rev_day": 15.08830673
    },
    {
      "epoch": "2026-04-19T18:44:59.538624Z",
      "apogee_km": 540.6056231655557,
      "perigee_km": 538.8208178086688,
      "latitude_deg": -4.603500443873644e-05,
      "longitude_deg": 170.52412532202538,
      "height_km": 540.7694157402055,
      "semi_major_axis_km": 6917.850220487112,
      "eccentricity": 0.000129,
      "inclination_deg": 53.216,
      "raan_deg": 299.6532,
      "arg_perigee_deg": 100.3614,
      "mean_anomaly_deg": 259.7523,
      "mean_motion_rev_day": 15.0884987
    },
    {
      "epoch": "2026-04-19T21:55:45.738912Z",
      "apogee_km": 540.6090245977648,
      "perigee_km": 538.8117678442277,
      "latitude_deg": -5.898146860968414e-05,
      "longitude_deg": 122.10623690057224,
      "height_km": 540.7627894582233,
      "semi_major_axis_km": 6917.847396220996,
      "eccentricity": 0.0001299,
      "inclination_deg": 53.216,
      "raan_deg": 299.0584,
      "arg_perigee_deg": 100.0433,
      "mean_anomaly_deg": 260.0705,
      "mean_motion_rev_day": 15.08850794
    },
    {
      "epoch": "2026-04-21T18:26:32.592192Z",
      "apogee_km": 540.6485835744716,
      "perigee_km": 538.7835303903084,
      "latitude_deg": -2.6632988357239352e-05,
      "longitude_deg": 164.25695006261128,
      "height_km": 540.7324293105447,
      "semi_major_axis_km": 6917.85305698239,
      "eccentricity": 0.0001348,
      "inclination_deg": 53.2169,
      "raan_deg": 290.7324,
      "arg_perigee_deg": 97.4357,
      "mean_anomaly_deg": 262.6788,
      "mean_motion_rev_day": 15.08848942
    },
    {
      "epoch": "2026-04-21T21:37:18.732000Z",
      "apogee_km": 540.661649149717,
      "perigee_km": 538.7592411023079,
      "latitude_deg": -2.3459514445744844e-05,
      "longitude_deg": 115.83912613723562,
      "height_km": 540.8044604660549,
      "semi_major_axis_km": 6917.847445126013,
      "eccentricity": 0.0001375,
      "inclination_deg": 53.2175,
      "raan_deg": 290.1374,
      "arg_perigee_deg": 102.0312,
      "mean_anomaly_deg": 258.0834,
      "mean_motion_rev_day": 15.08850778
    },
    {
      "epoch": "2026-04-22T21:28:06.101184Z",
      "apogee_km": 540.7948776132262,
      "perigee_km": 538.6849251583035,
      "latitude_deg": 1.5308703157926592e-05,
      "longitude_deg": 112.69984032406987,
      "height_km": 540.9350319993897,
      "semi_major_axis_km": 6917.8769013857645,
      "eccentricity": 0.0001525,
      "inclination_deg": 53.2197,
      "raan_deg": 285.6748,
      "arg_perigee_deg": 106.483,
      "mean_anomaly_deg": 253.633,
      "mean_motion_rev_day": 15.08841141
    },
    {
      "epoch": "2026-04-24T16:23:30.679872Z",
      "apogee_km": 540.5955861770708,
      "perigee_km": 538.8771864279142,
      "latitude_deg": -1.146833564713139e-05,
      "longitude_deg": 179.05690130338388,
      "height_km": 540.7496258093755,
      "semi_major_axis_km": 6917.873386302493,
      "eccentricity": 0.0001242,
      "inclination_deg": 53.2168,
      "raan_deg": 277.6471,
      "arg_perigee_deg": 97.8546,
      "mean_anomaly_deg": 262.2587,
      "mean_motion_rev_day": 15.08842291
    },
    {
      "epoch": "2026-04-25T19:25:04.510272Z",
      "apogee_km": 540.6352082221065,
      "perigee_km": 538.8835968529847,
      "latitude_deg": 2.094590395887914e-07,
      "longitude_deg": 127.50192864455717,
      "height_km": 540.702327703044,
      "semi_major_axis_km": 6917.896402537545,
      "eccentricity": 0.0001266,
      "inclination_deg": 53.2169,
      "raan_deg": 272.593,
      "arg_perigee_deg": 93.0856,
      "mean_anomaly_deg": 267.0281,
      "mean_motion_rev_day": 15.08834761
    },
    {
      "epoch": "2026-04-26T17:40:28.051392Z",
      "apogee_km": 540.625259845222,
      "perigee_km": 538.8712992114497,
      "latitude_deg": -6.02057207420121e-06,
      "longitude_deg": 148.57659282436626,
      "height_km": 540.5880229831697,
      "semi_major_axis_km": 6917.885279528336,
      "eccentricity": 0.00012677,
      "inclination_deg": 53.2164,
      "raan_deg": 268.4298,
      "arg_perigee_deg": 86.3396,
      "mean_anomaly_deg": 273.7741,
      "mean_motion_rev_day": 15.088384
    },
    {
      "epoch": "2026-04-27T19:06:37.327968Z",
      "apogee_km": 540.6672230813992,
      "perigee_km": 538.7025616639648,
      "latitude_deg": -4.031277101990954e-06,
      "longitude_deg": 121.23572699287399,
      "height_km": 540.7635749713876,
      "semi_major_axis_km": 6917.821892372682,
      "eccentricity": 0.000142,
      "inclination_deg": 53.2169,
      "raan_deg": 263.6722,
      "arg_perigee_deg": 100.7408,
      "mean_anomaly_deg": 259.3744,
      "mean_motion_rev_day": 15.08859138
    }
  ]
}